{"type": "FeatureCollection", "features": [ {"type": "Feature", "properties": {"norad_id": 34529, "name": "IRIDIUM 33 DEB", "group": "iridium-33-debris", "lat": -60.96111381857115, "lon": -134.10818432759905, "alt_km": 761.5064986156895, "timestamp": "2025-12-03T13:52:09.951511+00:00", "meta": {"OBJECT_NAME": "IRIDIUM 33 DEB", "OBJECT_ID": "1997-051HW", "EPOCH": "2025-12-03T04:25:06.115584", "MEAN_MOTION": 14.40603135, "ECCENTRICITY": 0.00036637, "INCLINATION": 86.3649, "RA_OF_ASC_NODE": 39.4847, "ARG_OF_PERICENTER": 211.6368, "MEAN_ANOMALY": 148.4612, "EPHEMERIS_TYPE": 0, "CLASSIFICATION_TYPE": "U", "NORAD_CAT_ID": 34529, "ELEMENT_SET_NO": 999, "REV_AT_EPOCH": 88004, "BSTAR": 0.00016704296, "MEAN_MOTION_DOT": 5.52e-06, "MEAN_MOTION_DDOT": 0}, "tle": {"line1": "1 34529U 97051HW  25337.18409856  .00000552  00000+0  16704-3 0  9998", "line2": "2 34529  86.3649  39.4847 0003663 211.6368 148.4612 14.40603135880044"}}, "geometry": {"type": "Point", "coordinates": [-134.10818432759905, -60.96111381857115]}}, {"type": "Feature", "properties": {"norad_id": 34538, "name": "IRIDIUM 33 DEB", "group": "iridium-33-debris", "lat": 12.36098833308604, "lon": 10.386167546291027, "alt_km": 727.8351322658546, "timestamp": "2025-12-03T13:52:09.951522+00:00", "meta": {"OBJECT_NAME": "IRIDIUM 33 DEB", "OBJECT_ID": "1997-051JF", "EPOCH": "2025-12-03T09:06:24.180192", "MEAN_MOTION": 14.42557361, "ECCENTRICITY": 0.00339742, "INCLINATION": 86.2784, "RA_OF_ASC_NODE": 9.6557, "ARG_OF_PERICENTER": 359.4688, "MEAN_ANOMALY": 63.0233, "EPHEMERIS_TYPE": 0, "CLASSIFICATION_TYPE": "U", "NORAD_CAT_ID": 34538, "ELEMENT_SET_NO": 999, "REV_AT_EPOCH": 87621, "BSTAR": 0.0012709165, "MEAN_MOTION_DOT": 4.264e-05, "MEAN_MOTION_DDOT": 0}, "tle": {"line1": "1 34538U 97051JF  25337.37944653  .00004264  00000+0  12709-2 0  9992", "line2": "2 34538  86.2784   9.6557 0033974 359.4688  63.0233 14.42557361876210"}}, "geometry": {"type": "Point", "coordinates": [10.386167546291027, 12.36098833308604]}}, {"type": "Feature", "properties": {"norad_id": 34540, "name": "IRIDIUM 33 DEB", "group": "iridium-33-debris", "lat": 77.487429811718, "lon": -31.29557043465489, "alt_km": 642.3570531917685, "timestamp": "2025-12-03T13:52:09.951532+00:00", "meta": {"OBJECT_NAME": "IRIDIUM 33 DEB", "OBJECT_ID": "1997-051JH", "EPOCH": "2025-12-03T05:26:21.211296", "MEAN_MOTION": 14.74981692, "ECCENTRICITY": 0.0014801, "INCLINATION": 86.3092, "RA_OF_ASC_NODE": 311.9555, "ARG_OF_PERICENTER": 194.145, "MEAN_ANOMALY": 180.1243, "EPHEMERIS_TYPE": 0, "CLASSIFICATION_TYPE": "U", "NORAD_CAT_ID": 34540, "ELEMENT_SET_NO": 999, "REV_AT_EPOCH": 88881, "BSTAR": 0.0021817841, "MEAN_MOTION_DOT": 0.00014731, "MEAN_MOTION_DDOT": 0}, "tle": {"line1": "1 34540U 97051JH  25337.22663439  .00014731  00000+0  21818-2 0  9990", "line2": "2 34540  86.3092 311.9555 0014801 194.1450 180.1243 14.74981692888816"}}, "geometry": {"type": "Point", "coordinates": [-31.29557043465489, 77.487429811718]}}, {"type": "Feature", "properties": {"norad_id": 34648, "name": "IRIDIUM 33 DEB", "group": "iridium-33-debris", "lat": 11.19025542852939, "lon": 104.92798094136907, "alt_km": 982.7185204543357, "timestamp": "2025-12-03T13:52:09.951543+00:00", "meta": {"OBJECT_NAME": "IRIDIUM 33 DEB", "OBJECT_ID": "1997-051JZ", "EPOCH": "2025-12-01T03:11:38.418720", "MEAN_MOTION": 14.1087899, "ECCENTRICITY": 0.01868529, "INCLINATION": 86.3903, "RA_OF_ASC_NODE": 286.6295, "ARG_OF_PERICENTER": 334.6513, "MEAN_ANOMALY": 24.5588, "EPHEMERIS_TYPE": 0, "CLASSIFICATION_TYPE": "U", "NORAD_CAT_ID": 34648, "ELEMENT_SET_NO": 999, "REV_AT_EPOCH": 84797, "BSTAR": 0.0079356223, "MEAN_MOTION_DOT": 0.00016788, "MEAN_MOTION_DDOT": 0}, "tle": {"line1": "1 34648U 97051JZ  25335.13308355  .00016788  00000+0  79356-2 0  9994", "line2": "2 34648  86.3903 286.6295 0186852 334.6513  24.5588 14.10878990847973"}}, "geometry": {"type": "Point", "coordinates": [104.92798094136907, 11.19025542852939]}}, {"type": "Feature", "properties": {"norad_id": 34651, "name": "IRIDIUM 33 DEB", "group": "iridium-33-debris", "lat": 69.04790758860517, "lon": -45.30344143194684, "alt_km": 853.6932124265468, "timestamp": "2025-12-03T13:52:09.951553+00:00", "meta": {"OBJECT_NAME": "IRIDIUM 33 DEB", "OBJECT_ID": "1997-051KC", "EPOCH": "2025-12-02T05:19:54.206688", "MEAN_MOTION": 14.25531146, "ECCENTRICITY": 0.0141862, "INCLINATION": 86.2826, "RA_OF_ASC_NODE": 145.0488, "ARG_OF_PERICENTER": 237.4272, "MEAN_ANOMALY": 121.3155, "EPHEMERIS_TYPE": 0, "CLASSIFICATION_TYPE": "U", "NORAD_CAT_ID": 34651, "ELEMENT_SET_NO": 999, "REV_AT_EPOCH": 85746, "BSTAR": 0.0036308, "MEAN_MOTION_DOT": 9.56e-05, "MEAN_MOTION_DDOT": 0}, "tle": {"line1": "1 34651U 97051KC  25336.22215517  .00009560  00000+0  36308-2 0  9996", "line2": "2 34651  86.2826 145.0488 0141862 237.4272 121.3155 14.25531146857462"}}, "geometry": {"type": "Point", "coordinates": [-45.30344143194684, 69.04790758860517]}}, {"type": "Feature", "properties": {"norad_id": 34652, "name": "IRIDIUM 33 DEB", "group": "iridium-33-debris", "lat": 47.87161323187713, "lon": -11.850401582903759, "alt_km": 678.4319219574936, "timestamp": "2025-12-03T13:52:09.951565+00:00", "meta": {"OBJECT_NAME": "IRIDIUM 33 DEB", "OBJECT_ID": "1997-051KD", "EPOCH": "2025-12-02T12:03:44.445600", "MEAN_MOTION": 14.61898676, "ECCENTRICITY": 0.00270627, "INCLINATION": 86.3312, "RA_OF_ASC_NODE": 344.5601, "ARG_OF_PERICENTER": 334.9096, "MEAN_ANOMALY": 177.4047, "EPHEMERIS_TYPE": 0, "CLASSIFICATION_TYPE": "U", "NORAD_CAT_ID": 34652, "ELEMENT_SET_NO": 999, "REV_AT_EPOCH": 88334, "BSTAR": 0.0012168376, "MEAN_MOTION_DOT": 6.139e-05, "MEAN_MOTION_DDOT": 0}, "tle": {"line1": "1 34652U 97051KD  25336.50259775  .00006139  00000+0  12168-2 0  9999", "line2": "2 34652  86.3312 344.5601 0027062 334.9096 177.4047 14.61898676883341"}}, "geometry": {"type": "Point", "coordinates": [-11.850401582903759, 47.87161323187713]}}, {"type": "Feature", "properties": {"norad_id": 34690, "name": "IRIDIUM 33 DEB", "group": "iridium-33-debris", "lat": 41.11141108765363, "lon": -142.1947115102661, "alt_km": 704.9552219679808, "timestamp": "2025-12-03T13:52:09.951576+00:00", "meta": {"OBJECT_NAME": "IRIDIUM 33 DEB", "OBJECT_ID": "1997-051KM", "EPOCH": "2025-12-03T05:16:57.744192", "MEAN_MOTION": 14.55035336, "ECCENTRICITY": 0.0011766, "INCLINATION": 86.3793, "RA_OF_ASC_NODE": 41.1284, "ARG_OF_PERICENTER": 57.4796, "MEAN_ANOMALY": 8.1983, "EPHEMERIS_TYPE": 0, "CLASSIFICATION_TYPE": "U", "NORAD_CAT_ID": 34690, "ELEMENT_SET_NO": 999, "REV_AT_EPOCH": 87956, "BSTAR": 0.00068018877, "MEAN_MOTION_DOT": 2.953e-05, "MEAN_MOTION_DDOT": 0}, "tle": {"line1": "1 34690U 97051KM  25337.22011278  .00002953  00000+0  68019-3 0  9992", "line2": "2 34690  86.3793  41.1284 0011766  57.4796   8.1983 14.55035336879568"}}, "geometry": {"type": "Point", "coordinates": [-142.1947115102661, 41.11141108765363]}}, {"type": "Feature", "properties": {"norad_id": 34693, "name": "IRIDIUM 33 DEB", "group": "iridium-33-debris", "lat": 0.014796275361846868, "lon": -51.634193777684324, "alt_km": 490.25792839640417, "timestamp": "2025-12-03T13:52:09.951586+00:00", "meta": {"OBJECT_NAME": "IRIDIUM 33 DEB", "OBJECT_ID": "1997-051KQ", "EPOCH": "2025-12-02T22:20:48.477696", "MEAN_MOTION": 15.24488571, "ECCENTRICITY": 0.0016088, "INCLINATION": 86.3048, "RA_OF_ASC_NODE": 308.6845, "ARG_OF_PERICENTER": 67.5745, "MEAN_ANOMALY": 345.3417, "EPHEMERIS_TYPE": 0, "CLASSIFICATION_TYPE": "U", "NORAD_CAT_ID": 34693, "ELEMENT_SET_NO": 999, "REV_AT_EPOCH": 88765, "BSTAR": 0.0056534603, "MEAN_MOTION_DOT": 0.00141805, "MEAN_MOTION_DDOT": 0}, "tle": {"line1": "1 34693U 97051KQ  25336.93111664  .00141805  00000+0  56535-2 0  9991", "line2": "2 34693  86.3048 308.6845 0016088  67.5745 345.3417 15.24488571887653"}}, "geometry": {"type": "Point", "coordinates": [-51.634193777684324, 0.014796275361846868]}}, {"type": "Feature", "properties": {"norad_id": 34696, "name": "IRIDIUM 33 DEB", "group": "iridium-33-debris", "lat": -39.76913874351327, "lon": 28.599121272250656, "alt_km": 713.671328220039, "timestamp": "2025-12-03T13:52:09.951597+00:00", "meta": {"OBJECT_NAME": "IRIDIUM 33 DEB", "OBJECT_ID": "1997-051KT", "EPOCH": "2025-12-03T04:28:11.100576", "MEAN_MOTION": 14.64206057, "ECCENTRICITY": 0.00749149, "INCLINATION": 86.1857, "RA_OF_ASC_NODE": 31.9639, "ARG_OF_PERICENTER": 199.7908, "MEAN_ANOMALY": 216.5568, "EPHEMERIS_TYPE": 0, "CLASSIFICATION_TYPE": "U", "NORAD_CAT_ID": 34696, "ELEMENT_SET_NO": 999, "REV_AT_EPOCH": 86533, "BSTAR": 0.0073652282, "MEAN_MOTION_DOT": 0.00040594, "MEAN_MOTION_DDOT": 0}, "tle": {"line1": "1 34696U 97051KT  25337.18623959  .00040594  00000+0  73652-2 0  9999", "line2": "2 34696  86.1857  31.9639 0074914 199.7908 216.5568 14.64206057865337"}}, "geometry": {"type": "Point", "coordinates": [28.599121272250656, -39.76913874351327]}}, {"type": "Feature", "properties": {"norad_id": 34765, "name": "IRIDIUM 33 DEB", "group": "iridium-33-debris", "lat": -70.7619278801177, "lon": 26.124307906764642, "alt_km": 757.0126144711967, "timestamp": "2025-12-03T13:52:09.951608+00:00", "meta": {"OBJECT_NAME": "IRIDIUM 33 DEB", "OBJECT_ID": "1997-051LJ", "EPOCH": "2025-12-02T05:08:41.186976", "MEAN_MOTION": 14.40418764, "ECCENTRICITY": 0.00145508, "INCLINATION": 86.3401, "RA_OF_ASC_NODE": 37.2773, "ARG_OF_PERICENTER": 249.3549, "MEAN_ANOMALY": 173.3707, "EPHEMERIS_TYPE": 0, "CLASSIFICATION_TYPE": "U", "NORAD_CAT_ID": 34765, "ELEMENT_SET_NO": 999, "REV_AT_EPOCH": 87462, "BSTAR": 0.00049787542, "MEAN_MOTION_DOT": 1.602e-05, "MEAN_MOTION_DDOT": 0}, "tle": {"line1": "1 34765U 97051LJ  25336.21436559  .00001602  00000+0  49788-3 0  9998", "line2": "2 34765  86.3401  37.2773 0014550 249.3549 173.3707 14.40418764874623"}}, "geometry": {"type": "Point", "coordinates": [26.124307906764642, -70.7619278801177]}}]}